start=new Date('2022-10-04T00:00:00.000Z').valueOf();
sats=[{"CENTER_NAME":"EARTH","INCLINATION":"70.0009","MEAN_MOTION_DDOT":"0.0000000000000","MEAN_ANOMALY":"93.7764","LAUNCH_DATE":"2021-09-14","MEAN_MOTION_DOT":"0.00007426","ECCENTRICITY":"0.00030570","COUNTRY_CODE":"US","ARG_OF_PERICENTER":"266.3045","BSTAR":"0.00062937000000","CLASSIFICATION_TYPE":"U","MEAN_ELEMENT_THEORY":"SGP4","OBJECT_TYPE":"PAYLOAD","EPHEMERIS_TYPE":"0","PERIOD":"96.106","SITE":"AFWTR","TLE_LINE1":"1 49181U 21082BD  22276.84959190  .00007426  00000-0  62937-3 0  9999","TLE_LINE2":"2 49181  70.0009 213.3065 0003057 266.3045  93.7764 14.98340120 59509","NORAD_CAT_ID":"49181","EPOCH":"2022-10-03T20:23:24.740160","DECAY_DATE":null,"OBJECT_ID":"2021-082BD","TIME_SYSTEM":"UTC","PERIAPSIS":"569.902","SEMIMAJOR_AXIS":"6950.162","OBJECT_NAME":"STARLINK-3059","GP_ID":"214120242","RCS_SIZE":"LARGE","MEAN_MOTION":"14.98340120","FILE":"3590585","APOAPSIS":"574.151","RA_OF_ASC_NODE":"213.3065","REV_AT_EPOCH":"5950","ELEMENT_SET_NO":"999","REF_FRAME":"TEME"},{"TIME_SYSTEM":"UTC","SEMIMAJOR_AXIS":"6917.875","PERIAPSIS":"538.418","RCS_SIZE":"LARGE","GP_ID":"214094471","OBJECT_NAME":"STARLINK-3151","MEAN_MOTION":"15.08841908","RA_OF_ASC_NODE":"93.6509","APOAPSIS":"541.061","FILE":"3590472","ELEMENT_SET_NO":"999","REV_AT_EPOCH":"5057","REF_FRAME":"TEME","OBJECT_TYPE":"PAYLOAD","MEAN_ELEMENT_THEORY":"SGP4","EPHEMERIS_TYPE":"0","SITE":"AFETR","PERIOD":"95.437","TLE_LINE1":"1 49408U 21104A   22276.78095364  .00002198  00000-0  15614-3 0  9994","TLE_LINE2":"2 49408  53.2157  93.6509 0001910  47.1003 313.0150 15.08841908 50572","EPOCH":"2022-10-03T18:44:34.394496","NORAD_CAT_ID":"49408","DECAY_DATE":null,"OBJECT_ID":"2021-104A","MEAN_MOTION_DOT":"0.00002198","LAUNCH_DATE":"2021-11-13","ECCENTRICITY":"0.00019100","COUNTRY_CODE":"US","ARG_OF_PERICENTER":"47.1003","BSTAR":"0.00015614000000","CLASSIFICATION_TYPE":"U","CENTER_NAME":"EARTH","INCLINATION":"53.2157","MEAN_MOTION_DDOT":"0.0000000000000","MEAN_ANOMALY":"313.0150"},{"COUNTRY_CODE":"US","MEAN_MOTION_DOT":"0.00008122","LAUNCH_DATE":"2021-11-13","ECCENTRICITY":"0.00017390","BSTAR":"0.00052763000000","ARG_OF_PERICENTER":"51.8842","CLASSIFICATION_TYPE":"U","CENTER_NAME":"EARTH","INCLINATION":"53.2158","MEAN_ANOMALY":"308.2307","MEAN_MOTION_DDOT":"0.0000000000000","PERIAPSIS":"538.508","SEMIMAJOR_AXIS":"6917.846","TIME_SYSTEM":"UTC","MEAN_MOTION":"15.08851227","GP_ID":"214093981","OBJECT_NAME":"STARLINK-3075","RCS_SIZE":"LARGE","REV_AT_EPOCH":"5057","ELEMENT_SET_NO":"999","FILE":"3590473","APOAPSIS":"540.914","RA_OF_ASC_NODE":"93.5873","REF_FRAME":"TEME","EPHEMERIS_TYPE":"0","OBJECT_TYPE":"PAYLOAD","MEAN_ELEMENT_THEORY":"SGP4","TLE_LINE1":"1 49409U 21104B   22276.79567948  .00008122  00000-0  52763-3 0  9997","PERIOD":"95.437","SITE":"AFETR","EPOCH":"2022-10-03T19:05:46.707072","NORAD_CAT_ID":"49409","TLE_LINE2":"2 49409  53.2158  93.5873 0001739  51.8842 308.2307 15.08851227 50574","OBJECT_ID":"2021-104B","DECAY_DATE":null},{"OBJECT_ID":"2021-104C","DECAY_DATE":null,"NORAD_CAT_ID":"49410","EPOCH":"2022-10-03T20:30:33.216768","TLE_LINE2":"2 49410  53.2149  93.3262 0001824  54.8882 305.2280 15.08846740 50579","TLE_LINE1":"1 49410U 21104C   22276.85455112  .00002299  00000-0  16247-3 0  9991","SITE":"AFETR","PERIOD":"95.437","EPHEMERIS_TYPE":"0","MEAN_ELEMENT_THEORY":"SGP4","OBJECT_TYPE":"PAYLOAD","REF_FRAME":"TEME","ELEMENT_SET_NO":"999","REV_AT_EPOCH":"5057","APOAPSIS":"540.987","RA_OF_ASC_NODE":"93.3262","FILE":"3590473","MEAN_MOTION":"15.08846740","RCS_SIZE":"LARGE","OBJECT_NAME":"STARLINK-3147","GP_ID":"214094475","SEMIMAJOR_AXIS":"6917.860","PERIAPSIS":"538.463","TIME_SYSTEM":"UTC","MEAN_ANOMALY":"305.2280","MEAN_MOTION_DDOT":"0.0000000000000","INCLINATION":"53.2149","CENTER_NAME":"EARTH","CLASSIFICATION_TYPE":"U","BSTAR":"0.00016247000000","ARG_OF_PERICENTER":"54.8882","COUNTRY_CODE":"US","ECCENTRICITY":"0.00018240","LAUNCH_DATE":"2021-11-13","MEAN_MOTION_DOT":"0.00002299"},{"TLE_LINE1":"1 49411U 21104D   22276.84811427  .00003206  00000-0  21937-3 0  9997","SITE":"AFETR","PERIOD":"95.437","EPHEMERIS_TYPE":"0","MEAN_ELEMENT_THEORY":"SGP4","OBJECT_TYPE":"PAYLOAD","OBJECT_ID":"2021-104D","DECAY_DATE":null,"NORAD_CAT_ID":"49411","EPOCH":"2022-10-03T20:21:17.072928","TLE_LINE2":"2 49411  53.2165  83.3543 0001983  43.7751 316.3399 15.08847238 49639","MEAN_MOTION":"15.08847238","RCS_SIZE":"LARGE","GP_ID":"214120022","OBJECT_NAME":"STARLINK-3162","SEMIMAJOR_AXIS":"6917.858","PERIAPSIS":"538.351","TIME_SYSTEM":"UTC","REF_FRAME":"TEME","ELEMENT_SET_NO":"999","REV_AT_EPOCH":"4963","APOAPSIS":"541.095","RA_OF_ASC_NODE":"83.3543","FILE":"3590585","INCLINATION":"53.2165","CENTER_NAME":"EARTH","MEAN_ANOMALY":"316.3399","MEAN_MOTION_DDOT":"0.0000000000000","COUNTRY_CODE":"US","LAUNCH_DATE":"2021-11-13","MEAN_MOTION_DOT":"0.00003206","ECCENTRICITY":"0.00019830","CLASSIFICATION_TYPE":"U","BSTAR":"0.00021937000000","ARG_OF_PERICENTER":"43.7751"},{"FILE":"3590585","APOAPSIS":"540.799","RA_OF_ASC_NODE":"93.6022","REV_AT_EPOCH":"4949","ELEMENT_SET_NO":"999","REF_FRAME":"TEME","TIME_SYSTEM":"UTC","PERIAPSIS":"538.698","SEMIMAJOR_AXIS":"6917.883","OBJECT_NAME":"STARLINK-3144","GP_ID":"214120266","RCS_SIZE":"LARGE","MEAN_MOTION":"15.08839033","TLE_LINE2":"2 49412  53.2168  93.6022 0001519  66.3912 293.7239 15.08839033 49493","EPOCH":"2022-10-03T19:00:28.263456","NORAD_CAT_ID":"49412","DECAY_DATE":null,"OBJECT_ID":"2021-104E","MEAN_ELEMENT_THEORY":"SGP4","OBJECT_TYPE":"PAYLOAD","EPHEMERIS_TYPE":"0","PERIOD":"95.438","SITE":"AFETR","TLE_LINE1":"1 49412U 21104E   22276.79199379  .00000407  00000-0  43692-4 0  9990","ARG_OF_PERICENTER":"66.3912","BSTAR":"0.00004369200000","CLASSIFICATION_TYPE":"U","LAUNCH_DATE":"2021-11-13","MEAN_MOTION_DOT":"0.00000407","ECCENTRICITY":"0.00015190","COUNTRY_CODE":"US","MEAN_MOTION_DDOT":"0.0000000000000","MEAN_ANOMALY":"293.7239","CENTER_NAME":"EARTH","INCLINATION":"53.2168"},{"MEAN_ANOMALY":"314.5755","MEAN_MOTION_DDOT":"0.0000000000000","CENTER_NAME":"EARTH","INCLINATION":"53.2167","BSTAR":"0.00003347600000","ARG_OF_PERICENTER":"45.5382","CLASSIFICATION_TYPE":"U","COUNTRY_CODE":"US","LAUNCH_DATE":"2021-11-13","MEAN_MOTION_DOT":"0.00000245","ECCENTRICITY":"0.00017750","EPOCH":"2022-10-03T20:15:59.110560","NORAD_CAT_ID":"49413","TLE_LINE2":"2 49413  53.2167  83.3648 0001775  45.5382 314.5755 15.08847281 49632","OBJECT_ID":"2021-104F","DECAY_DATE":null,"EPHEMERIS_TYPE":"0","OBJECT_TYPE":"PAYLOAD","MEAN_ELEMENT_THEORY":"SGP4","TLE_LINE1":"1 49413U 21104F   22276.84443415  .00000245  00000-0  33476-4 0  9999","PERIOD":"95.437","SITE":"AFETR","REV_AT_EPOCH":"4963","ELEMENT_SET_NO":"999","FILE":"3590585","RA_OF_ASC_NODE":"83.3648","APOAPSIS":"540.951","REF_FRAME":"TEME","PERIAPSIS":"538.495","SEMIMAJOR_AXIS":"6917.858","TIME_SYSTEM":"UTC","MEAN_MOTION":"15.08847281","OBJECT_NAME":"STARLINK-3157","GP_ID":"214119021","RCS_SIZE":"LARGE"},{"CLASSIFICATION_TYPE":"U","ARG_OF_PERICENTER":"52.9565","BSTAR":"0.00021285000000","LAUNCH_DATE":"2021-11-13","ECCENTRICITY":"0.00019370","MEAN_MOTION_DOT":"0.00003102","COUNTRY_CODE":"US","MEAN_MOTION_DDOT":"0.0000000000000","MEAN_ANOMALY":"307.1604","INCLINATION":"53.2160","CENTER_NAME":"EARTH","REF_FRAME":"TEME","APOAPSIS":"541.061","RA_OF_ASC_NODE":"93.6304","FILE":"3590585","ELEMENT_SET_NO":"999","REV_AT_EPOCH":"4948","RCS_SIZE":"LARGE","OBJECT_NAME":"STARLINK-3146","GP_ID":"214119271","MEAN_MOTION":"15.08847853","TIME_SYSTEM":"UTC","SEMIMAJOR_AXIS":"6917.856","PERIAPSIS":"538.381","DECAY_DATE":null,"OBJECT_ID":"2021-104G","TLE_LINE2":"2 49414  53.2160  93.6304 0001937  52.9565 307.1604 15.08847853 49483","NORAD_CAT_ID":"49414","EPOCH":"2022-10-03T18:49:52.548672","SITE":"AFETR","PERIOD":"95.437","TLE_LINE1":"1 49414U 21104G   22276.78463598  .00003102  00000-0  21285-3 0  9996","MEAN_ELEMENT_THEORY":"SGP4","OBJECT_TYPE":"PAYLOAD","EPHEMERIS_TYPE":"0"},{"GP_ID":"214120522","OBJECT_NAME":"STARLINK-3159","RCS_SIZE":"LARGE","MEAN_MOTION":"15.08843518","TIME_SYSTEM":"UTC","PERIAPSIS":"538.258","SEMIMAJOR_AXIS":"6917.870","REF_FRAME":"TEME","FILE":"3590585","RA_OF_ASC_NODE":"83.3826","APOAPSIS":"541.212","REV_AT_EPOCH":"4962","ELEMENT_SET_NO":"999","PERIOD":"95.437","SITE":"AFETR","TLE_LINE1":"1 49415U 21104H   22276.84075553  .00002692  00000-0  18716-3 0  9992","MEAN_ELEMENT_THEORY":"SGP4","OBJECT_TYPE":"PAYLOAD","EPHEMERIS_TYPE":"0","DECAY_DATE":null,"OBJECT_ID":"2021-104H","TLE_LINE2":"2 49415  53.2160  83.3826 0002135  43.5244 316.5916 15.08843518 49620","NORAD_CAT_ID":"49415","EPOCH":"2022-10-03T20:10:41.277792","LAUNCH_DATE":"2021-11-13","MEAN_MOTION_DOT":"0.00002692","ECCENTRICITY":"0.00021350","COUNTRY_CODE":"US","CLASSIFICATION_TYPE":"U","ARG_OF_PERICENTER":"43.5244","BSTAR":"0.00018716000000","INCLINATION":"53.2160","CENTER_NAME":"EARTH","MEAN_MOTION_DDOT":"0.0000000000000","MEAN_ANOMALY":"316.5916"},{"CENTER_NAME":"EARTH","INCLINATION":"53.2156","MEAN_MOTION_DDOT":"0.0000000000000","MEAN_ANOMALY":"303.6911","LAUNCH_DATE":"2021-11-13","ECCENTRICITY":"0.00016080","MEAN_MOTION_DOT":"0.00000833","COUNTRY_CODE":"US","ARG_OF_PERICENTER":"56.4234","BSTAR":"0.00007040400000","CLASSIFICATION_TYPE":"U","MEAN_ELEMENT_THEORY":"SGP4","OBJECT_TYPE":"PAYLOAD","EPHEMERIS_TYPE":"0","PERIOD":"95.437","SITE":"AFETR","TLE_LINE1":"1 49416U 21104J   22276.64479141  .00000833  00000-0  70404-4 0  9990","TLE_LINE2":"2 49416  53.2156  94.2512 0001608  56.4234 303.6911 15.08841269 49460","NORAD_CAT_ID":"49416","EPOCH":"2022-10-03T15:28:29.977824","DECAY_DATE":null,"OBJECT_ID":"2021-104J","TIME_SYSTEM":"UTC","PERIAPSIS":"538.629","SEMIMAJOR_AXIS":"6917.877","GP_ID":"214120766","OBJECT_NAME":"STARLINK-3133","RCS_SIZE":"LARGE","MEAN_MOTION":"15.08841269","FILE":"3590585","APOAPSIS":"540.854","RA_OF_ASC_NODE":"94.2512","REV_AT_EPOCH":"4946","ELEMENT_SET_NO":"999","REF_FRAME":"TEME"}];
